[{"OBJECT_NAME":"STARLINK-11188 [DTC]","OBJECT_ID":"2024-152C","EPOCH":"2025-11-16T16:26:39.003360","MEAN_MOTION":15.69692706,"ECCENTRICITY":0.0001457,"INCLINATION":53.1585,"RA_OF_ASC_NODE":313.5335,"ARG_OF_PERICENTER":112.4901,"MEAN_ANOMALY":247.6271,"EPHEMERIS_TYPE":0,"CLASSIFICATION_TYPE":"U","NORAD_CAT_ID":60722,"ELEMENT_SET_NO":999,"REV_AT_EPOCH":7120,"BSTAR":3.4692e-5,"MEAN_MOTION_DOT":3.613e-5,"MEAN_MOTION_DDOT":0},{"OBJECT_NAME":"STARLINK-11272 [DTC]","OBJECT_ID":"2024-152D","EPOCH":"2025-11-16T07:02:24.118080","MEAN_MOTION":15.69719353,"ECCENTRICITY":0.00013376,"INCLINATION":53.159,"RA_OF_ASC_NODE":315.352,"ARG_OF_PERICENTER":75.3337,"MEAN_ANOMALY":284.7829,"EPHEMERIS_TYPE":0,"CLASSIFICATION_TYPE":"U","NORAD_CAT_ID":60723,"ELEMENT_SET_NO":999,"REV_AT_EPOCH":7102,"BSTAR":2.945087e-5,"MEAN_MOTION_DOT":2.982e-5,"MEAN_MOTION_DDOT":0},{"OBJECT_NAME":"STARLINK-11261 [DTC]","OBJECT_ID":"2024-152E","EPOCH":"2025-11-16T07:09:28.410336","MEAN_MOTION":15.69707365,"ECCENTRICITY":8.684e-5,"INCLINATION":53.1576,"RA_OF_ASC_NODE":315.3845,"ARG_OF_PERICENTER":113.0852,"MEAN_ANOMALY":247.0257,"EPHEMERIS_TYPE":0,"CLASSIFICATION_TYPE":"U","NORAD_CAT_ID":60724,"ELEMENT_SET_NO":999,"REV_AT_EPOCH":7102,"BSTAR":2.6671367e-5,"MEAN_MOTION_DOT":2.644e-5,"MEAN_MOTION_DDOT":0},{"OBJECT_NAME":"STARLINK-11263 [DTC]","OBJECT_ID":"2024-152F","EPOCH":"2025-11-16T06:55:20.337312","MEAN_MOTION":15.69719341,"ECCENTRICITY":0.00010511,"INCLINATION":53.1582,"RA_OF_ASC_NODE":315.3214,"ARG_OF_PERICENTER":48.1495,"MEAN_ANOMALY":311.9613,"EPHEMERIS_TYPE":0,"CLASSIFICATION_TYPE":"U","NORAD_CAT_ID":60725,"ELEMENT_SET_NO":999,"REV_AT_EPOCH":7102,"BSTAR":1.90792e-6,"MEAN_MOTION_DOT":-3.57e-6,"MEAN_MOTION_DDOT":0},{"OBJECT_NAME":"STARLINK-11235 [DTC]","OBJECT_ID":"2024-152G","EPOCH":"2025-11-16T06:48:16.098624","MEAN_MOTION":15.69730626,"ECCENTRICITY":0.00012439,"INCLINATION":53.1585,"RA_OF_ASC_NODE":315.2864,"ARG_OF_PERICENTER":113.9865,"MEAN_ANOMALY":246.1284,"EPHEMERIS_TYPE":0,"CLASSIFICATION_TYPE":"U","NORAD_CAT_ID":60726,"ELEMENT_SET_NO":999,"REV_AT_EPOCH":7115,"BSTAR":4.7817275e-5,"MEAN_MOTION_DOT":5.213e-5,"MEAN_MOTION_DDOT":0},{"OBJECT_NAME":"STARLINK-11080 [DTC]","OBJECT_ID":"2024-152H","EPOCH":"2025-11-16T06:41:11.947200","MEAN_MOTION":15.6973344,"ECCENTRICITY":9.562e-5,"INCLINATION":53.1598,"RA_OF_ASC_NODE":315.2529,"ARG_OF_PERICENTER":102.2524,"MEAN_ANOMALY":257.8601,"EPHEMERIS_TYPE":0,"CLASSIFICATION_TYPE":"U","NORAD_CAT_ID":60727,"ELEMENT_SET_NO":999,"REV_AT_EPOCH":7115,"BSTAR":-2.1548967e-5,"MEAN_MOTION_DOT":-3.201e-5,"MEAN_MOTION_DDOT":0},{"OBJECT_NAME":"STARLINK-11249 [DTC]","OBJECT_ID":"2024-152J","EPOCH":"2025-11-16T06:34:08.347008","MEAN_MOTION":15.69723201,"ECCENTRICITY":0.00012822,"INCLINATION":53.1585,"RA_OF_ASC_NODE":315.2209,"ARG_OF_PERICENTER":119.0131,"MEAN_ANOMALY":241.1016,"EPHEMERIS_TYPE":0,"CLASSIFICATION_TYPE":"U","NORAD_CAT_ID":60728,"ELEMENT_SET_NO":999,"REV_AT_EPOCH":7102,"BSTAR":1.2277032e-5,"MEAN_MOTION_DOT":8.99e-6,"MEAN_MOTION_DDOT":0},{"OBJECT_NAME":"STARLINK-11146 [DTC]","OBJECT_ID":"2024-152K","EPOCH":"2025-11-16T17:08:52.403424","MEAN_MOTION":15.69712545,"ECCENTRICITY":0.0001287,"INCLINATION":53.1595,"RA_OF_ASC_NODE":312.9799,"ARG_OF_PERICENTER":76.3746,"MEAN_ANOMALY":283.7416,"EPHEMERIS_TYPE":0,"CLASSIFICATION_TYPE":"U","NORAD_CAT_ID":60729,"ELEMENT_SET_NO":999,"REV_AT_EPOCH":7122,"BSTAR":1.6118e-6,"MEAN_MOTION_DOT":-3.94e-6,"MEAN_MOTION_DDOT":0},{"OBJECT_NAME":"STARLINK-11255 [DTC]","OBJECT_ID":"2024-152L","EPOCH":"2025-11-16T06:20:01.103424","MEAN_MOTION":15.69711023,"ECCENTRICITY":0.00014567,"INCLINATION":53.1575,"RA_OF_ASC_NODE":315.1572,"ARG_OF_PERICENTER":56.6985,"MEAN_ANOMALY":303.4173,"EPHEMERIS_TYPE":0,"CLASSIFICATION_TYPE":"U","NORAD_CAT_ID":60730,"ELEMENT_SET_NO":999,"REV_AT_EPOCH":7103,"BSTAR":4.1568094e-5,"MEAN_MOTION_DOT":4.45e-5,"MEAN_MOTION_DDOT":0},{"OBJECT_NAME":"STARLINK-11254 [DTC]","OBJECT_ID":"2024-152M","EPOCH":"2025-11-16T16:54:45.661824","MEAN_MOTION":15.69684167,"ECCENTRICITY":0.0001736,"INCLINATION":53.1597,"RA_OF_ASC_NODE":312.9256,"ARG_OF_PERICENTER":105.3101,"MEAN_ANOMALY":254.8109,"EPHEMERIS_TYPE":0,"CLASSIFICATION_TYPE":"U","NORAD_CAT_ID":60731,"ELEMENT_SET_NO":999,"REV_AT_EPOCH":7110,"BSTAR":4.5012e-5,"MEAN_MOTION_DOT":4.861e-5,"MEAN_MOTION_DDOT":0},{"OBJECT_NAME":"STARLINK-11266 [DTC]","OBJECT_ID":"2024-152N","EPOCH":"2025-11-16T16:47:40.909056","MEAN_MOTION":15.69705645,"ECCENTRICITY":0.0001149,"INCLINATION":53.158,"RA_OF_ASC_NODE":312.8811,"ARG_OF_PERICENTER":93.3378,"MEAN_ANOMALY":266.7771,"EPHEMERIS_TYPE":0,"CLASSIFICATION_TYPE":"U","NORAD_CAT_ID":60732,"ELEMENT_SET_NO":999,"REV_AT_EPOCH":7109,"BSTAR":1.953e-5,"MEAN_MOTION_DOT":1.777e-5,"MEAN_MOTION_DDOT":0},{"OBJECT_NAME":"STARLINK-32253","OBJECT_ID":"2024-152P","EPOCH":"2025-11-16T15:23:36.038112","MEAN_MOTION":15.30194766,"ECCENTRICITY":0.0001652,"INCLINATION":53.1605,"RA_OF_ASC_NODE":73.4464,"ARG_OF_PERICENTER":89.174,"MEAN_ANOMALY":270.945,"EPHEMERIS_TYPE":0,"CLASSIFICATION_TYPE":"U","NORAD_CAT_ID":60733,"ELEMENT_SET_NO":999,"REV_AT_EPOCH":6949,"BSTAR":3.9862e-5,"MEAN_MOTION_DOT":8.21e-6,"MEAN_MOTION_DDOT":0},{"OBJECT_NAME":"STARLINK-32179","OBJECT_ID":"2024-152Q","EPOCH":"2025-11-16T17:58:26.300064","MEAN_MOTION":15.3020507,"ECCENTRICITY":7.45e-5,"INCLINATION":53.1638,"RA_OF_ASC_NODE":73.4161,"ARG_OF_PERICENTER":96.2972,"MEAN_ANOMALY":263.8114,"EPHEMERIS_TYPE":0,"CLASSIFICATION_TYPE":"U","NORAD_CAT_ID":60734,"ELEMENT_SET_NO":999,"REV_AT_EPOCH":6942,"BSTAR":-1.4738e-5,"MEAN_MOTION_DOT":-7.95e-6,"MEAN_MOTION_DDOT":0},{"OBJECT_NAME":"STARLINK-32272","OBJECT_ID":"2024-152R","EPOCH":"2025-11-16T14:55:31.014336","MEAN_MOTION":15.31158533,"ECCENTRICITY":0.00018089,"INCLINATION":53.1579,"RA_OF_ASC_NODE":73.3437,"ARG_OF_PERICENTER":51.3912,"MEAN_ANOMALY":308.725,"EPHEMERIS_TYPE":0,"CLASSIFICATION_TYPE":"U","NORAD_CAT_ID":60735,"ELEMENT_SET_NO":999,"REV_AT_EPOCH":6950,"BSTAR":0.0014846856,"MEAN_MOTION_DOT":0.00045213,"MEAN_MOTION_DDOT":0},{"OBJECT_NAME":"STARLINK-32289","OBJECT_ID":"2024-152T","EPOCH":"2025-11-16T11:23:59.440128","MEAN_MOTION":15.30201229,"ECCENTRICITY":0.00010894,"INCLINATION":53.1632,"RA_OF_ASC_NODE":74.5481,"ARG_OF_PERICENTER":74.1793,"MEAN_ANOMALY":285.9328,"EPHEMERIS_TYPE":0,"CLASSIFICATION_TYPE":"U","NORAD_CAT_ID":60737,"ELEMENT_SET_NO":999,"REV_AT_EPOCH":6951,"BSTAR":6.0754402e-5,"MEAN_MOTION_DOT":1.441e-5,"MEAN_MOTION_DDOT":0},{"OBJECT_NAME":"STARLINK-32304","OBJECT_ID":"2024-152U","EPOCH":"2025-11-16T11:19:25.875264","MEAN_MOTION":15.30200359,"ECCENTRICITY":0.00021376,"INCLINATION":53.1611,"RA_OF_ASC_NODE":74.5284,"ARG_OF_PERICENTER":89.1453,"MEAN_ANOMALY":270.9793,"EPHEMERIS_TYPE":0,"CLASSIFICATION_TYPE":"U","NORAD_CAT_ID":60738,"ELEMENT_SET_NO":999,"REV_AT_EPOCH":6951,"BSTAR":3.8090104e-5,"MEAN_MOTION_DOT":7.69e-6,"MEAN_MOTION_DDOT":0}]
