STARLINK-11188 [DTC]    
1 60722U 24152C   25320.68517365  .00003613  00000+0  34692-4 0  9994
2 60722  53.1585 313.5335 0001457 112.4901 247.6271 15.69692706 71204
STARLINK-11272 [DTC]    
1 60723U 24152D   25320.29333470  .00002982  00000+0  29451-4 0  9990
2 60723  53.1590 315.3520 0001337  75.3337 284.7829 15.69719353 71023
STARLINK-11261 [DTC]    
1 60724U 24152E   25320.29824549  .00002644  00000+0  26671-4 0  9999
2 60724  53.1576 315.3845 0000868 113.0852 247.0257 15.69707365 71025
STARLINK-11263 [DTC]    
1 60725U 24152F   25320.28842983 -.00000357  00000+0  19079-5 0  9996
2 60725  53.1582 315.3214 0001051  48.1495 311.9613 15.69719341 71023
STARLINK-11235 [DTC]    
1 60726U 24152G   25320.28351966  .00005213  00000+0  47817-4 0  9998
2 60726  53.1585 315.2864 0001243 113.9865 246.1284 15.69730626 71158
STARLINK-11080 [DTC]    
1 60727U 24152H   25320.27861050 -.00003201  00000+0 -21549-4 0  9999
2 60727  53.1598 315.2529 0000956 102.2524 257.8601 15.69733440 71153
STARLINK-11249 [DTC]    
1 60728U 24152J   25320.27370772  .00000899  00000+0  12277-4 0  9992
2 60728  53.1585 315.2209 0001282 119.0131 241.1016 15.69723201 71024
STARLINK-11146 [DTC]    
1 60729U 24152K   25320.71449541 -.00000394  00000+0  16118-5 0  9993
2 60729  53.1595 312.9799 0001287  76.3746 283.7416 15.69712545 71223
STARLINK-11255 [DTC]    
1 60730U 24152L   25320.26390166  .00004450  00000+0  41568-4 0  9995
2 60730  53.1575 315.1572 0001456  56.6985 303.4173 15.69711023 71030
STARLINK-11254 [DTC]    
1 60731U 24152M   25320.70469516  .00004861  00000+0  45012-4 0  9995
2 60731  53.1597 312.9256 0001736 105.3101 254.8109 15.69684167 71106
STARLINK-11266 [DTC]    
1 60732U 24152N   25320.69977904  .00001777  00000+0  19530-4 0  9998
2 60732  53.1580 312.8811 0001149  93.3378 266.7771 15.69705645 71095
STARLINK-32253          
1 60733U 24152P   25320.64138933  .00000821  00000+0  39862-4 0  9994
2 60733  53.1605  73.4464 0001652  89.1740 270.9450 15.30194766 69499
STARLINK-32179          
1 60734U 24152Q   25320.74891551 -.00000795  00000+0 -14738-4 0  9995
2 60734  53.1638  73.4161 0000745  96.2972 263.8114 15.30205070 69420
STARLINK-32272          
1 60735U 24152R   25320.62188674  .00045213  00000+0  14847-2 0  9999
2 60735  53.1579  73.3437 0001808  51.3912 308.7250 15.31158533 69508
STARLINK-32289          
1 60737U 24152T   25320.47499352  .00001441  00000+0  60754-4 0  9997
2 60737  53.1632  74.5481 0001089  74.1793 285.9328 15.30201229 69516
STARLINK-32304          
1 60738U 24152U   25320.47182726  .00000769  00000+0  38090-4 0  9992
2 60738  53.1611  74.5284 0002137  89.1453 270.9793 15.30200359 69512
